SL-14 R/B               
1 17912U 87038B   17345.82562509  .00000063  00000-0  47570-5 0  9990
2 17912  82.5034 243.6928 0020528  10.0960 350.0662 14.82958087654055
